satname,norad_id,inclination_deg,eccentricity,mean_motion_rev_per_day,perigee_km,apogee_km,l1,l2
STARLINK-1184,45098,53.0547,0.000577,15.09421652,533.9754909567691,541.9566739139009,1 45098U 20006BG  26044.23935146  .00027832  00000+0  17316-2 0  9994,2 45098  53.0547 355.7610 0005770  66.1105 294.0490 15.09421652333346
STARLINK-1193,45100,53.055,0.0005269,15.47928621,419.20306245463235,426.3698756062968,1 45100U 20006BJ  26044.23161038  .00103613  00000+0  19368-2 0  9990,2 45100  53.0550 347.9931 0005269 111.0390 249.1181 15.47928621333452
STARLINK-1143,45179,53.0476,0.0004533,15.56913817,393.52411304320685,399.6660851642546,1 45179U 20012B   26044.46949109  .00035768  00000+0  49259-3 0  9999,2 45179  53.0476  87.8027 0004533 347.2674  12.8221 15.56913817332148
STARLINK-1202,45183,53.1597,0.0001349,15.30195517,474.30393588207335,476.1529738817999,1 45183U 20012F   26044.52204493  .00002081  00000+0  82368-4 0  9992,2 45183  53.1597 151.5072 0001349 101.6651 258.4502 15.30195517331258
STARLINK-1216,45185,53.1635,0.0001423,15.30185057,474.2844485383757,476.2349252354634,1 45185U 20012H   26044.51256545 -.00001049  00000+0 -23309-4 0  9993,2 45185  53.1635 151.5336 0001423  74.8136 285.3022 15.30185057331195
STARLINK-1225,45187,53.1602,0.0001162,15.30183224,474.4687946580698,476.06152532005035,1 45187U 20012K   26044.50946191  .00004048  00000+0  14878-3 0  9997,2 45187  53.1602 151.9821 0001162  91.1122 269.0011 15.30183224331237
STARLINK-1230,45189,53.1608,0.0001173,15.30200459,474.40980089141885,476.0175969653874,1 45189U 20012M   26044.51896093  .00002945  00000+0  11150-3 0  9999,2 45189  53.1608 151.9998 0001173  99.7807 260.3326 15.30200459328460
STARLINK-1234,45190,53.0458,0.0006419,15.56594853,393.1712527241316,401.8698418833601,1 45190U 20012N   26044.48804804  .00124678  00000+0  17009-2 0  9992,2 45190  53.0458  83.0791 0006419 256.8676 103.1619 15.56594853332105
STARLINK-1269,45197,53.1615,0.0001446,15.30185574,474.2671422557132,476.24914413112583,1 45197U 20012V   26044.51578223 -.00002386  00000+0 -68481-4 0  9991,2 45197  53.1615 151.8746 0001446 108.8837 251.2321 15.30185574331216
STARLINK-1154,45198,53.0509,0.0005921,15.42379923,435.05106726297345,443.12402457024837,1 45198U 20012W   26044.47687245  .00017503  00000+0  40758-3 0  9993,2 45198  53.0509 125.1453 0005921 356.2076   3.8883 15.42379923331550
STARLINK-1199,45201,53.056,0.000126,15.06920763,544.7435611332276,546.488346877637,1 45201U 20012Z   26043.92019389  .00069761  00000+0  45911-2 0  9993,2 45201  53.0560 137.8191 0001260 104.8109 255.3020 15.06920763331389
STARLINK-1209,45206,53.0484,0.0007762,15.46604378,421.38611095937995,431.9498902423129,1 45206U 20012AE  26044.41021271  .00090552  00000+0  17750-2 0  9998,2 45206  53.0484  89.7268 0007762 218.8883 141.1565 15.46604378331153
STARLINK-1210,45207,53.0095,0.0006435,15.97423557,277.2844147336682,285.8554575604894,1 45207U 20012AF  26044.58334490  .00389530  73390-4  86232-3 0  9993,2 45207  53.0095  24.0887 0006435  73.4685 269.3378 15.97423557  5799
STARLINK-1231,45212,53.0463,0.0002919,15.19022143,506.7843344444991,510.80492512996807,1 45212U 20012AL  26044.48238756  .00044419  00000+0  20974-2 0  9993,2 45212  53.0463 126.7742 0002919 347.7337  12.3586 15.19022143331540
STARLINK-1271,45217,53.0545,0.0001155,15.06409318,546.3831252975506,547.982874217495,1 45217U 20012AR  26044.50306629 -.00001358  00000+0 -72295-4 0  9998,2 45217  53.0545 135.1994 0001155  91.5313 268.5809 15.06409318331472
STARLINK-1191,45222,53.1605,0.0001474,15.31026129,471.7396856947944,473.7593270368707,1 45222U 20012AW  26044.44399313 -.00000046  00000+0  10405-4 0  9996,2 45222  53.1605 111.5131 0001474 102.9695 257.1471 15.31026129331800
STARLINK-1212,45223,53.0529,0.0004226,15.43916916,431.68331365828544,437.4414071577021,1 45223U 20012AX  26044.44864475  .00072382  00000+0  15617-2 0  9992,2 45223  53.0529 106.0748 0004226  16.8909 343.2236 15.43916916331886
STARLINK-1215,45225,53.1596,0.0001271,15.30175855,474.4160927740131,476.1582331962445,1 45225U 20012AZ  26044.48924817 -.00003449  00000+0 -10444-3 0  9999,2 45225  53.1596 110.7144 0001271  81.4149 278.6996 15.30175855331773
STARLINK-1221,45227,53.0673,0.0002213,15.40994041,441.6647255022481,444.68383787552284,1 45227U 20012BB  26044.40302617  .00017935  00000+0  43712-3 0  9998,2 45227  53.0673  24.6156 0002213 342.1833  17.9094 15.40994041332962
STARLINK-1222,45228,53.0568,0.000263,15.47637445,421.8506024612343,425.42833688428163,1 45228U 20012BC  26044.42089132  .00058064  00000+0  11068-2 0  9991,2 45228  53.0568  99.0262 0002630  29.1667 330.9487 15.47637445331861
STARLINK-1226,45229,53.1606,0.0001379,15.31039842,471.76386733246,473.6533305486473,1 45229U 20012BD  26044.46060587  .00000133  00000+0  16297-4 0  9994,2 45229  53.1606 111.2374 0001379  77.9335 282.1820 15.31039842331701
STARLINK-1227,45230,53.1597,0.0001434,15.31039809,471.7262861095378,473.6911086555474,1 45230U 20012BE  26044.48826111  .00001225  00000+0  52216-4 0  9995,2 45230  53.1597 111.4249 0001434  82.4531 277.6633 15.31039809331823
STARLINK-1246,45235,53.1602,0.0001617,15.30193503,474.1262781924361,476.3426585253037,1 45235U 20012BK  26044.52520585  .00000455  00000+0  27515-4 0  9999,2 45235  53.1602 151.4907 0001617  54.3391 305.7760 15.30193503331279
STARLINK-1270,45237,53.051,0.0003787,15.42959976,434.7978464375501,439.95991816680544,1 45237U 20012BM  26044.45107387  .00084117  00000+0  18701-2 0  9996,2 45237  53.0510 102.9646 0003787 335.0272  25.0549 15.42959976331922
STARLINK-1279,45360,53.0448,0.0006032,15.52514483,405.2931233751533,413.4815927607269,1 45360U 20019A   26044.46564625  .00115436  00000+0  18308-2 0  9995,2 45360  53.0448 215.8059 0006032 133.7608 226.3901 15.52514483326904
STARLINK-1301,45361,53.0447,0.0008261,15.59180799,384.4355468057511,395.6179069152713,1 45361U 20019B   26044.58334490  .00082445  00000+0  10277-2 0  9994,2 45361  53.0447 221.8849 0008261 134.6905 107.0921 15.59180799  5967
STARLINK-1262,45366,53.0546,0.000146,15.06393119,546.2215433240044,548.2437512610131,1 45366U 20019G   26043.87830869  .00000518  00000+0  53698-4 0  9998,2 45366  53.0546 277.9986 0001460  97.7934 262.3221 15.06393119325991
STARLINK-1273,45367,53.0523,0.0002145,15.41421706,440.44961474235333,443.37541598444386,1 45367U 20019H   26044.04840001  .00070444  00000+0  16534-2 0  9999,2 45367  53.0523 271.7844 0002145 123.5195 236.6015 15.41421706326090
STARLINK-1276,45368,53.054,0.0001557,15.06393976,546.1517410470669,548.3083003373104,1 45368U 20019J   26043.93728890 -.00000294  00000+0 -83378-6 0  9990,2 45368  53.0540 277.7322 0001557  89.1707 270.9460 15.06393976326003
STARLINK-1277,45369,53.054,0.0001877,15.44264217,432.2623312850874,434.81943516244974,1 45369U 20019K   26044.00840527  .00025316  00000+0  54912-3 0  9991,2 45369  53.0540 270.4267 0001877  61.7267 298.3927 15.44264217326115
STARLINK-1281,45370,53.0544,0.0001394,15.06395206,546.2608552596057,548.1916465339546,1 45370U 20019L   26044.05892748 -.00000012  00000+0  18096-4 0  9991,2 45370  53.0544 277.1897 0001394  87.7214 272.3935 15.06395206326020
STARLINK-1300,45374,53.0542,0.0001375,15.06400193,546.2587310757544,548.1632017665197,1 45374U 20019Q   26044.08103589 -.00001254  00000+0 -65329-4 0  9997,2 45374  53.0542 277.0898 0001375  91.1615 268.9532 15.06400193326021
STARLINK-1302,45375,53.0524,0.0002079,15.4539344,428.8068139499501,431.6377297351819,1 45375U 20019R   26044.04682794  .00082471  00000+0  16893-2 0  9992,2 45375  53.0524 269.6866 0002079 113.1649 246.9576 15.45393440326122
STARLINK-1304,45376,53.0536,0.0005311,15.44012723,430.6624609039882,437.8986108105755,1 45376U 20019S   26044.01518541  .00070463  00000+0  15157-2 0  9998,2 45376  53.0536 267.1817 0005311 139.4923 220.6478 15.44012723326157
STARLINK-1305,45377,53.0466,0.0006501,15.48147789,417.7237292780155,426.56545540437855,1 45377U 20019T   26043.95743862  .00089049  00000+0  16557-2 0  9992,2 45377  53.0466 251.0260 0006501 104.1598 256.0131 15.48147789326382
STARLINK-1319,45379,53.0483,0.0006084,15.54003685,400.9234501671399,409.17723252408905,1 45379U 20019V   26043.91692859  .00090889  00000+0  13717-2 0  9998,2 45379  53.0483 250.1104 0006084 111.0758 249.0902 15.54003685326393
STARLINK-1266,45383,53.0513,0.0001776,15.420105,438.9653821048769,441.38724699420436,1 45383U 20019Z   26043.98898016  .00029052  00000+0  67782-3 0  9999,2 45383  53.0513 250.3326 0001776 132.0579 228.0577 15.42010500326382
STARLINK-1267,45384,53.0539,0.0008126,15.45491897,424.4008757545216,435.4653513030289,1 45384U 20019AA  26044.53021252  .00036492  00000+0  75354-3 0  9992,2 45384  53.0539 242.4897 0008126 155.2930 204.8466 15.45491897326542
STARLINK-1272,45386,53.0461,0.0006421,15.51456429,408.11270326300473,416.8332045658217,1 45386U 20019AC  26044.48400060  .00110361  00000+0  18193-2 0  9991,2 45386  53.0461 226.6155 0006421 122.6442 237.5187 15.51456429326767
STARLINK-1274,45387,53.0292,0.000844,15.4388193,428.9152768828244,440.41528713485513,1 45387U 20019AD  26044.47085155  .00090456  00000+0  19454-2 0  9998,2 45387  53.0292 218.4040 0008440 147.4677 212.6850 15.43881930326873
STARLINK-1280,45388,53.0474,0.0006727,15.60151626,382.66765537497304,391.769764947423,1 45388U 20019AE  26043.90667743  .00123530  00000+0  14742-2 0  9990,2 45388  53.0474 243.7782 0006727 112.8423 247.3301 15.60151626326463
STARLINK-1283,45389,53.0457,0.0010645,15.51198949,405.9949675908774,420.4537759513787,1 45389U 20019AF  26044.53331219  .00118847  00000+0  19719-2 0  9991,2 45389  53.0457 226.5573 0010645 146.6486 213.5195 15.51198949326779
STARLINK-1284,45390,53.0504,0.000262,15.47365576,422.6538777519527,426.21842608355655,1 45390U 20019AG  26043.97415965  .00067248  00000+0  12912-2 0  9997,2 45390  53.0504 249.4867 0002620 147.0322 213.0848 15.47365576326397
